{
  "type": "FeatureCollection",
  "features": [
    { "type": "Feature", "properties": { "name": "Asia–Europe via Suez" },
      "geometry": { "type": "LineString", "coordinates": [[121.5,31.2],[114.1,22.3],[103.8,1.3],[80.2,6.0],[43.3,12.6],[32.5,29.9],[32.3,31.2],[14.5,35.5],[-5.6,36.0],[-9.5,38.7],[1.4,51.0],[4.0,52.0]] } },
    { "type": "Feature", "properties": { "name": "Transpacific (Asia–US West Coast)" },
      "geometry": { "type": "LineString", "coordinates": [[121.5,31.2],[139.7,35.4],[160.0,40.0],[180.0,44.0],[-160.0,44.0],[-135.0,42.0],[-122.4,37.8]] } },
    { "type": "Feature", "properties": { "name": "Transatlantic (US East–Europe)" },
      "geometry": { "type": "LineString", "coordinates": [[-74.0,40.6],[-60.0,42.0],[-40.0,45.0],[-20.0,48.0],[-9.5,38.7],[1.4,51.0]] } },
    { "type": "Feature", "properties": { "name": "Panama–Asia" },
      "geometry": { "type": "LineString", "coordinates": [[-79.5,9.0],[-100.0,12.0],[-140.0,15.0],[-170.0,18.0],[170.0,22.0],[139.7,35.4],[121.5,31.2]] } },
    { "type": "Feature", "properties": { "name": "US East–Panama" },
      "geometry": { "type": "LineString", "coordinates": [[-74.0,40.6],[-75.0,32.0],[-78.0,22.0],[-79.5,9.0]] } },
    { "type": "Feature", "properties": { "name": "Malacca–Middle East" },
      "geometry": { "type": "LineString", "coordinates": [[103.8,1.3],[95.0,5.5],[80.2,6.0],[63.0,22.0],[56.0,26.5]] } },
    { "type": "Feature", "properties": { "name": "Asia–Australia" },
      "geometry": { "type": "LineString", "coordinates": [[103.8,1.3],[110.0,-6.0],[120.0,-15.0],[130.0,-25.0],[151.2,-33.9]] } },
    { "type": "Feature", "properties": { "name": "Europe–South America" },
      "geometry": { "type": "LineString", "coordinates": [[-9.5,38.7],[-20.0,20.0],[-30.0,0.0],[-40.0,-15.0],[-43.2,-22.9]] } },
    { "type": "Feature", "properties": { "name": "South Africa Cape route" },
      "geometry": { "type": "LineString", "coordinates": [[18.4,-33.9],[20.0,-35.0],[40.0,-20.0],[56.0,-5.0],[80.2,6.0]] } }
  ]
}
